ID,Address,Suburb,Price,Type,Date,Rooms,Bathroom,Car,Landsize,Age,Lattitude,Longtitude,train_station_id,distance_to_train_stat,travel_min_to_CBD,over_priced?,crime_A_average,crime_B_average,crime_C_average
ID653110831,208/465 MacAulay Rd,KENSINGTON,460000.0,u,23/04/2016,2,1.0,1.0,0.0,9.0,-37.7948,144.9314,20041,,17.0,0,271.666666667,771.666666667,74.0
ID821949664,50 Albion Cr,GREENSBOROUGH,770000.0,h,29/07/2017,4,2.0,2.0,789.0,44.0,-37.69646,145.12163,19985,,41.6667,0,663.0,4010.0,377.0
ID187222141,64 Magnolia Ct,TEMPLESTOWE LOWER,1325000.0,h,17/09/2016,4,3.0,2.0,740.0,51.0,-37.7728,145.1271,20042,,25.7179,0,2403.666666667,5212.333333333,586.666667
ID129868455,2/36 Prospect St,GLENROY,607000.0,t,18/03/2017,4,3.0,2.0,0.0,5.0,-37.7102,144.9112,20032,,36.0,0,1841.666666667,9184.666666667,533.333333
ID729453071,64 Havelock St,ST KILDA,1200500.0,h,24/09/2016,2,1.0,0.0,201.0,104.0,-37.8654,144.9809,19956,,17.5,0,1363.666666667,6287.666666667,564.333333
ID304055699,29 Evan St,PARKDALE,1250000.0,h,16/09/2017,3,1.0,2.0,802.0,59.0,-37.98752,145.08358,19864,,47.0667,0,938.333333333,6892.666666667,553.333333
ID652534147,56 Maude Av,GLENROY,605000.0,h,9/09/2017,2,1.0,2.0,378.0,64.0,-37.70175,144.93578,20032,,36.0,0,1841.666666667,9184.666666667,533.333333
ID751101835,14 New St,ARMADALE,1300000.0,h,18/06/2016,3,1.0,2.0,212.0,119.0,-37.8542,145.0149,19946,,18.2143,0,2489.666666667,11817.333333333,1268.666667
ID794256299,38 Stewart St,BRUNSWICK,1317000.0,h,28/05/2016,3,1.0,1.0,480.0,17.0,-37.7639,144.966,19967,,27.3333,0,958.666666667,5673.0,628.0
ID476272676,10A Coniston Av,AIRPORT WEST,780000.0,t,29/07/2017,3,2.0,1.0,195.0,14.0,-37.7325,144.88272,20036,,27.0,0,1214.666666667,5603.666666667,375.333333
ID387469067,34 Grange St,PRESTON,930000.0,h,3/06/2017,3,1.0,0.0,357.0,94.0,-37.7377,144.98781,20012,,28.3,0,705.333333333,5479.666666667,335.0
ID974683828,11 Cedar Dr,MARIBYRNONG,990000.0,h,10/12/2016,5,2.0,2.0,433.0,17.0,-37.7742,144.8755,20022,,21.4,0,610.0,1743.666666667,228.0
ID873971032,110/171 Flemington Rd,NORTH MELBOURNE,550000.0,u,7/11/2016,2,1.0,2.0,0.0,44.0,-37.7955,144.9492,19972,,17.0,0,71.0,261.0,20.0
ID959078800,24A South St,HADFIELD,750074.0,h,19/11/2016,4,2.0,1.0,302.0,54.0,-37.7149,144.9474,19962,,37.0,0,1683.666666667,8938.666666667,509.333333
ID961423307,106/37 Palmerston St,CARLTON,620000.0,u,1/07/2017,2,2.0,1.0,0.0,6.0,-37.7969,144.9742,19843,,6.1017,0,101.333333333,253.666666667,33.0
ID715688706,21B Vernal Av,MITCHAM,1045000.0,h,15/07/2017,3,2.0,2.0,401.0,34.0,-37.82835,145.19845,19900,,34.4138,0,1471.0,7759.666666667,779.666667
ID645387021,4/236 Boundary Rd,PASCOE VALE,530000.0,t,27/05/2017,2,2.0,1.0,135.0,69.0,-37.71628,144.93822,20033,,34.0,0,705.333333333,5479.666666667,335.0
ID738334962,3/2 Cawkwell St,MALVERN,1390000.0,t,14/05/2016,3,2.0,1.0,227.0,24.0,-37.8577,145.0406,19944,,20.8,0,610.0,1743.666666667,228.0
ID197330449,45 Cityview Rd,BALWYN NORTH,1750000.0,h,6/08/2016,4,3.0,3.0,667.0,6.0,-37.7898,145.079,19934,,29.0,0,925.666666667,4701.333333333,308.666667
ID846590608,11 Heathcote Dr,FOREST HILL,730000.0,u,3/09/2017,2,1.0,1.0,296.0,21.0,-37.83633,145.16873,19899,,31.6667,0,2006.666666667,7754.333333333,1051.333333
ID594660199,5 Pickford St,PRAHRAN,1582000.0,h,25/02/2017,2,1.0,0.0,214.0,104.0,-37.8572,145.0066,19946,,18.2143,0,705.333333333,5479.666666667,335.0
ID668881864,1c Barwon St,GLENROY,540000.0,h,7/05/2016,2,1.0,1.0,164.0,9.0,-37.7082,144.9178,20032,,36.0,0,1683.666666667,8938.666666667,509.333333
ID365468504,16 Callanish Rd,CAMBERWELL,2220000.0,h,27/11/2016,3,2.0,2.0,850.0,59.0,-37.8456,145.0865,19849,,28.6667,0,3703.666666667,18944.0,2039.333333
ID418589143,16 Cain Ct,ALTONA,1005000.0,h,22/07/2017,3,1.0,2.0,636.0,34.0,-37.86317,144.83927,19927,,24.4286,0,2494.666666667,11307.0,1410.0
ID453603386,115 Belford Rd,KEW EAST,1650000.0,h,16/09/2017,3,1.0,2.0,650.0,102.0,-37.79235,145.04789,19932,,26.0,0,288.0,712.0,75.666667
ID753597115,197A Jasper Rd,BENTLEIGH,1375000.0,t,20/05/2017,3,3.0,2.0,338.0,7.0,-37.9166,145.0418,19939,,35.0833,0,959.0,4476.666666667,324.0
ID582025744,21 Barkly St,BOX HILL,1200000.0,h,10/12/2016,3,1.0,2.0,550.0,69.0,-37.8275,145.1298,20042,,25.7179,0,2744.333333333,10289.666666667,780.0
ID420697324,60 Murray St,SUNSHINE WEST,650000.0,h,12/08/2017,3,1.0,2.0,691.0,79.0,-37.78825,144.80098999999996,20020,,21.3333,0,2532.333333333,5455.0,713.0
ID611508172,64 Greythorn Rd,BALWYN NORTH,2000000.0,h,15/10/2016,5,2.0,2.0,1002.0,69.0,-37.796,145.0984,19896,,28.7692,0,925.666666667,4701.333333333,308.666667
ID691776789,12 Lindenow St,MAIDSTONE,927000.0,h,4/02/2016,2,1.0,4.0,524.0,99.0,-37.779,144.8832,20023,,19.4,0,610.0,1743.666666667,228.0
ID657243200,72 Military Rd,AVONDALE HEIGHTS,680000.0,h,24/09/2016,4,2.0,2.0,554.0,59.0,-37.7649,144.8633,20004,,26.375,0,1654.0,9119.666666667,550.0
ID563639539,49 Rogerson St,AVONDALE HEIGHTS,795000.0,h,28/05/2016,3,1.0,1.0,549.0,59.0,-37.7644,144.8575,20004,,26.375,0,1654.0,9119.666666667,550.0
ID950689476,7 Celia St,BENTLEIGH EAST,986000.0,h,8/04/2017,3,1.0,3.0,337.0,69.0,-37.9331,145.0586,19937,,38.2667,0,959.0,4476.666666667,324.0
ID609494076,7/55 Johnston St,PORT MELBOURNE,720000.0,u,7/05/2016,2,1.0,1.0,0.0,29.0,-37.8434,144.9435,20043,,0,1,659.0,5219.333333333,338.333333
ID158349485,7 Caddy Ct,RESERVOIR,585000.0,h,13/08/2016,3,1.0,3.0,620.0,7.0,-37.7293,145.032,20011,,31.2,0,824.666666667,1890.333333333,159.333333
ID486421416,18 Benjamin St,SUNSHINE,860000.0,h,15/07/2017,3,1.0,3.0,446.0,109.0,-37.79354,144.8328,20021,,24.0,0,1412.0,6364.0,699.333333
ID721715171,55 Fran St,GLENROY,705000.0,h,17/09/2016,5,3.0,2.0,612.0,49.0,-37.7022,144.9054,20032,,36.0,0,1683.666666667,8938.666666667,509.333333
ID430507804,8 Ian Av,RINGWOOD EAST,800000.0,h,9/09/2017,4,2.0,2.0,650.0,59.0,-37.80103,145.25368,19879,,41.7692,0,1609.333333333,6840.666666667,525.666667
ID702506090,4/57 Blyth St,ALTONA,730000.0,u,13/08/2016,3,2.0,1.0,69.0,5.0,-37.868,144.8286,19926,,26.5,0,2489.666666667,11817.333333333,1268.666667
ID598601336,6 Salisbury Gr,HAWTHORN,1741000.0,h,10/09/2016,3,1.0,1.0,383.0,109.0,-37.8155,145.0385,19904,,15.6552,1,1150.666666667,7827.0,922.333333
ID673871710,2a Flinders St,KEILOR PARK,685000.0,h,26/07/2016,3,2.0,2.0,260.0,49.0,-37.7226,144.8569,20002,,31.375,0,922.666666667,5201.0,296.666667
ID447837608,67 Celia St,GLEN IRIS,1700000.0,h,15/10/2016,4,3.0,1.0,650.0,73.0,-37.8581,145.078,19848,,30.6667,0,1923.666666667,8979.333333333,620.333333
ID350090095,9 Somerset St,PASCOE VALE,775000.0,h,30/07/2016,2,1.0,2.0,527.0,69.0,-37.7304,144.9261,20034,,31.0,0,659.0,5219.333333333,338.333333
ID718660382,5a Rosamond St,BALACLAVA,1475000.0,h,24/06/2017,3,2.0,1.0,147.0,15.0,-37.86997,144.9908,19956,,17.5,0,1672.666666667,10063.666666667,646.333333
ID534252159,69 Albion Rd,ASHBURTON,1670000.0,h,3/12/2016,3,2.0,2.0,599.0,89.0,-37.8673,145.0688,19847,,31.6667,0,1654.0,9119.666666667,550.0
ID599171064,91A Bayswater Rd,KENSINGTON,1250000.0,h,24/06/2017,3,1.0,2.0,340.0,29.0,-37.79436,144.92158,20026,,6.4,0,288.0,712.0,75.666667
ID347675811,149 Spring St,RESERVOIR,850000.0,h,17/06/2017,2,1.0,2.0,494.0,10.0,-37.72596,145.00113000000005,20011,,31.2,0,885.0,1901.0,227.666667
ID376927540,202/800 Chapel St,SOUTH YARRA,840000.0,u,25/02/2017,2,2.0,1.0,0.0,17.0,-37.8361,144.9966,19959,,12.5714,0,1245.0,3886.0,447.666667
ID295236548,10 Glen St,ESSENDON,1400000.0,h,20/05/2017,3,1.0,1.0,476.0,42.0,-37.7495,144.9157,20036,,27.0,0,330.333333333,1855.0,82.0
ID175008158,24/1231 Malvern Rd,MALVERN,660000.0,u,24/09/2016,2,1.0,1.0,0.0,94.0,-37.852,145.0343,19945,,19.2143,0,610.0,1743.666666667,228.0
ID201517461,7/18 Kelso St,CREMORNE,546000.0,u,8/10/2016,2,1.0,1.0,0.0,39.0,-37.8282,144.9897,22247,,10.0,0,888.0,2196.0,181.333333
ID235343301,8 Harcourt St,DONCASTER,1400000.0,h,8/04/2017,4,2.0,2.0,664.0,39.0,-37.7895,145.1116,19896,,28.7692,0,1666.0,9333.666666667,523.0
ID561916647,220 Roberts St,YARRAVILLE,1005000.0,h,15/07/2017,3,1.0,2.0,451.0,139.0,-37.81796,144.8681,19996,,11.3571,0,817.666666667,1779.666666667,181.0
ID180926914,15/5 Warley Rd,MALVERN EAST,425000.0,u,27/11/2016,2,1.0,1.0,0.0,22.0,-37.8804,145.0501,22248,,19.5,0,610.0,1743.666666667,228.0
ID593969561,26 South St,HADFIELD,810000.0,h,4/03/2017,3,2.0,2.0,592.0,69.0,-37.7149,144.9473,19962,,37.0,0,1841.666666667,9184.666666667,533.333333
ID337317811,12 Patterson Av,BURWOOD,1702000.0,h,16/09/2017,4,1.0,1.0,762.0,59.0,-37.84162,145.10435,19895,,25.5,0,941.333333333,5813.0,575.666667
ID791988472,3 Waratah Dr,TEMPLESTOWE LOWER,1201000.0,h,3/09/2016,4,2.0,2.0,657.0,41.0,-37.7624,145.1175,19936,,31.75,0,2403.666666667,5212.333333333,586.666667
ID818274849,7B Hargreaves St,FITZROY,2725000.0,h,13/05/2017,3,2.0,1.0,0.0,119.0,-37.8007,144.9833,19975,,13.2353,0,330.333333333,1855.0,82.0
ID836391723,5 Tedstone Cr,BALWYN,2400000.0,h,22/07/2017,5,3.0,2.0,785.0,59.0,-37.81161,145.07622,19893,,23.7692,0,959.0,4476.666666667,324.0
ID427129237,1/9 Indwe St,WEST FOOTSCRAY,620000.0,t,15/10/2016,3,1.0,2.0,255.0,18.0,-37.8038,144.8679,20022,,21.4,0,268.333333333,736.0,128.333333
ID121237161,118 Ludstone St,HAMPTON,1615000.0,h,12/11/2016,2,1.0,1.0,801.0,85.0,-37.9348,145.0162,19949,,31.5,0,1683.666666667,8938.666666667,509.333333
ID927797466,46 Vincent Cr,WERRIBEE,484000.0,h,8/07/2017,3,1.0,0.0,531.0,59.0,-37.88996,144.65526,19921,,35.1429,0,98.666666667,190.666666667,19.0
ID474719097,292 Rathmines St,THORNBURY,1275000.0,h,20/05/2017,3,1.0,2.0,517.0,69.0,-37.7638,145.0182,19930,,22.0,0,2532.333333333,5455.0,713.0
ID113437400,8/18 Edgar St,GLEN IRIS,680000.0,u,15/10/2016,2,1.0,1.0,0.0,73.0,-37.8566,145.0454,19944,,20.8,0,1923.666666667,8979.333333333,620.333333
ID755232584,14 Milroy St,BRIGHTON EAST,2504000.0,h,3/12/2016,4,2.0,2.0,674.0,69.0,-37.9022,145.0125,19952,,24.5,0,2744.333333333,10289.666666667,780.0
ID671986332,73 Martin St,BRIGHTON,3320000.0,h,10/12/2016,4,3.0,2.0,644.0,19.0,-37.8964,144.9972,19953,,23.5,0,2744.333333333,10289.666666667,780.0
